NORAD_CAT_ID,OBJECT_NAME,OBJECT_TYPE,EPOCH,MEAN_MOTION,ECCENTRICITY,INCLINATION,RA_OF_ASC_NODE,ARG_OF_PERICENTER,MEAN_ANOMALY,BSTAR,MEAN_MOTION_DOT,MEAN_MOTION_DDOT,TLE_LINE0,TLE_LINE1,TLE_LINE2,SEMIMAJOR_AXIS,PERIOD,APOGEE,PERIGEE,DECAYED
53287.0,STARLINK-4107,PAYLOAD,2023-09-28 06:31:25,15.08834977,0.0001657,53.2183,234.8354,119.9016,240.214,-4.9219e-05,-1.071e-05,0.0,0 STARLINK-4107,1 53287U 22086AX  23271.27182674 -.00001071  00000-0 -49219-4 0  9995,2 53287  53.2183 234.8354 0001657 119.9016 240.2140 15.08834977 66315,6917.896,95.438,540.907,538.614,0.0
53287.0,STARLINK-4107,PAYLOAD,2023-09-29 06:22:12,15.08840353,0.0001318,53.2179,230.3729,109.7562,250.3573,0.00021511,3.137e-05,0.0,0 STARLINK-4107,1 53287U 22086AX  23272.26542315  .00003137  00000-0  21511-3 0  9994,2 53287  53.2179 230.3729 0001318 109.7562 250.3573 15.08840353 66300,6917.879,95.438,540.656,538.833,0.0
53287.0,STARLINK-4107,PAYLOAD,2023-09-30 04:37:35,15.08856255,0.0001199,53.2159,226.2057,104.337,255.7755,0.0003425,5.17e-05,0.0,0 STARLINK-4107,1 53287U 22086AX  23273.19277679  .00005170  00000-0  34250-3 0  9998,2 53287  53.2159 226.2057 0001199 104.3370 255.7755 15.08856255 66603,6917.831,95.437,540.525,538.866,0.0
53287.0,STARLINK-4107,PAYLOAD,2023-09-30 06:12:58,15.08860049,0.000127,53.2161,225.9057,103.4267,256.6867,0.00041492,6.325e-05,0.0,0 STARLINK-4107,1 53287U 22086AX  23273.25901553  .00006325  00000-0  41492-3 0  9999,2 53287  53.2161 225.9057 0001270 103.4267 256.6867 15.08860049 66450,6917.819,95.436,540.563,538.806,0.0
53287.0,STARLINK-4107,PAYLOAD,2023-09-30 14:09:55,15.08836075,0.0001853,53.2165,224.4216,90.0827,270.0377,-4.974e-05,-1.08e-05,0.0,0 STARLINK-4107,1 53287U 22086AX  23273.59022672 -.00001080  00000-0 -49740-4 0  9992,2 53287  53.2165 224.4216 0001853  90.0827 270.0377 15.08836075 66509,6917.892,95.438,541.039,538.476,0.0
53287.0,STARLINK-4107,PAYLOAD,2023-10-01 02:53:00,15.08841566,0.0001278,53.2156,222.0415,96.8481,263.2657,2.5936e-05,1.25e-06,0.0,0 STARLINK-4107,1 53287U 22086AX  23274.12014372  .00000125  00000-0  25936-4 0  9998,2 53287  53.2156 222.0415 0001278  96.8481 263.2657 15.08841566 66747,6917.876,95.437,540.625,538.856,0.0
53287.0,STARLINK-4107,PAYLOAD,2023-10-01 14:00:42,15.08844781,0.0001357,53.2156,219.9603,92.8122,267.3025,0.00031131,4.671e-05,0.0,0 STARLINK-4107,1 53287U 22086AX  23274.58382466  .00004671  00000-0  31131-3 0  9993,2 53287  53.2156 219.9603 0001357  92.8122 267.3025 15.08844781 66653,6917.866,95.437,540.67,538.792,0.0
53287.0,STARLINK-4107,PAYLOAD,2023-10-01 20:22:15,15.08839806,0.0001518,53.2156,218.771,91.7417,268.3749,0.00033829,5.1e-05,0.0,0 STARLINK-4107,1 53287U 22086AX  23274.84878746  .00005100  00000-0  33829-3 0  9997,2 53287  53.2156 218.7710 0001518  91.7417 268.3749 15.08839806 66851,6917.881,95.438,540.796,538.696,0.0
53287.0,STARLINK-4107,PAYLOAD,2023-10-02 20:13:02,15.08846538,0.0001918,53.2164,214.312,98.8879,261.233,0.00024397,3.597e-05,0.0,0 STARLINK-4107,1 53287U 22086AX  23275.84238516  .00003597  00000-0  24397-3 0  9991,2 53287  53.2164 214.3120 0001918  98.8879 261.2330 15.08846538 66848,6917.86,95.437,541.052,538.399,0.0
53287.0,STARLINK-4107,PAYLOAD,2023-10-03 05:45:20,15.08852756,0.0001438,53.2156,212.5269,107.6866,252.4283,0.00042543,6.492e-05,0.0,0 STARLINK-4107,1 53287U 22086AX  23276.23982186  .00006492  00000-0  42543-3 0  9994,2 53287  53.2156 212.5269 0001438 107.6866 252.4283 15.08852756 67068,6917.841,95.437,540.701,538.712,0.0
53287.0,STARLINK-4107,PAYLOAD,2023-10-03 23:14:35,15.08839537,0.0001464,53.2166,209.2568,111.9009,248.2139,0.00042255,6.443e-05,0.0,0 STARLINK-4107,1 53287U 22086AX  23276.96846991  .00006443  00000-0  42255-3 0  9993,2 53287  53.2166 209.2568 0001464 111.9009 248.2139 15.08839537 67010,6917.882,95.438,540.76,538.734,0.0
53287.0,STARLINK-4107,PAYLOAD,2023-10-04 11:57:40,15.08849529,0.0001204,53.2163,206.8781,93.3671,266.7459,0.0008778,0.00013713,0.0,0 STARLINK-4107,1 53287U 22086AX  23277.49838998  .00013713  00000-0  87780-3 0  9990,2 53287  53.2163 206.8781 0001204  93.3671 266.7459 15.08849529 67255,6917.851,95.437,540.549,538.883,0.0
53287.0,STARLINK-4107,PAYLOAD,2023-10-05 02:16:09,15.08852563,0.0001334,53.2155,204.2053,98.5128,261.6016,0.0012071,0.00018982,0.0,0 STARLINK-4107,1 53287U 22086AX  23278.09455006  .00018982  00000-0  12071-2 0  9995,2 53287  53.2155 204.2053 0001334  98.5128 261.6016 15.08852563 67185,6917.842,95.437,540.63,538.784,0.0
53287.0,STARLINK-4107,PAYLOAD,2023-10-05 11:48:27,15.08861947,0.0001194,53.2159,202.4209,94.9759,265.137,0.00094974,0.00014868,0.0,0 STARLINK-4107,1 53287U 22086AX  23278.49198546  .00014868  00000-0  94974-3 0  9994,2 53287  53.2159 202.4209 0001194  94.9759 265.1370 15.08861947 67409,6917.813,95.436,540.504,538.852,0.0
53287.0,STARLINK-4107,PAYLOAD,2023-10-05 18:10:00,15.08829263,0.000154,53.2167,201.2263,77.507,282.6094,-0.00036641,-6.113e-05,0.0,0 STARLINK-4107,1 53287U 22086AX  23278.75695026 -.00006113  00000-0 -36641-3 0  9991,2 53287  53.2167 201.2263 0001540  77.5070 282.6094 15.08829263 67281,6917.913,95.438,540.844,538.713,0.0
53287.0,STARLINK-4107,PAYLOAD,2023-10-06 02:06:55,15.08849572,0.0001572,53.2155,199.7444,101.4195,258.6973,0.00066838,0.00010368,0.0,0 STARLINK-4107,1 53287U 22086AX  23279.08814785  .00010368  00000-0  66838-3 0  9999,2 53287  53.2155 199.7444 0001572 101.4195 258.6973 15.08849572 67330,6917.851,95.437,540.804,538.629,0.0
53287.0,STARLINK-4107,PAYLOAD,2023-10-06 05:17:42,15.08864518,0.0001586,53.2157,199.1472,95.6751,264.4422,0.0012975,0.00020436,0.0,0 STARLINK-4107,1 53287U 22086AX  23279.22062524  .00020436  00000-0  12975-2 0  9990,2 53287  53.2157 199.1472 0001586  95.6751 264.4422 15.08864518 67357,6917.805,95.436,540.768,538.573,0.0
53287.0,STARLINK-4107,PAYLOAD,2023-10-06 11:39:15,15.08845648,0.0002779,53.2151,197.9551,72.8365,287.2931,0.0012047,0.0001894,0.0,0 STARLINK-4107,1 53287U 22086AX  23279.48559502  .00018940  00000-0  12047-2 0  9992,2 53287  53.2151 197.9551 0002779  72.8365 287.2931 15.08845648 67551,6917.863,95.437,541.651,537.806,0.0
53287.0,STARLINK-4107,PAYLOAD,2023-10-07 01:57:43,15.08834663,0.0001807,53.215,195.2821,78.5587,281.5608,0.00037597,5.7e-05,0.0,0 STARLINK-4107,1 53287U 22086AX  23280.08175608  .00005700  00000-0  37597-3 0  9999,2 53287  53.2150 195.2821 0001807  78.5587 281.5608 15.08834663 67486,6917.897,95.438,541.012,538.512,0.0
53287.0,STARLINK-4107,PAYLOAD,2023-10-07 22:37:44,15.08846765,0.0002004,53.2156,191.4147,74.7916,285.3297,0.00065981,0.0001023,0.0,0 STARLINK-4107,1 53287U 22086AX  23280.94287743  .00010230  00000-0  65981-3 0  9990,2 53287  53.2156 191.4147 0002004  74.7916 285.3297 15.08846765 67779,6917.86,95.437,541.111,538.338,0.0
53287.0,STARLINK-4107,PAYLOAD,2023-10-08 03:23:53,15.0886772,0.0001556,53.2153,190.5238,91.8714,268.2457,0.0013654,0.00021526,0.0,0 STARLINK-4107,1 53287U 22086AX  23281.14159221  .00021526  00000-0  13654-2 0  9991,2 53287  53.2153 190.5238 0001556  91.8714 268.2457 15.08867720 67642,6917.796,95.436,540.737,538.584,0.0
53287.0,STARLINK-4107,PAYLOAD,2023-10-08 11:20:49,15.08860498,0.0001629,53.2164,189.0361,90.9219,269.196,0.0009187,0.00014372,0.0,0 STARLINK-4107,1 53287U 22086AX  23281.47279133  .00014372  00000-0  91870-3 0  9990,2 53287  53.2164 189.0361 0001629  90.9219 269.1960 15.08860498 67852,6917.818,95.436,540.81,538.556,0.0
53287.0,STARLINK-4107,PAYLOAD,2023-10-09 00:03:53,15.08887755,0.0001396,53.2148,186.6584,82.9406,277.1745,0.0016449,0.00026022,0.0,0 STARLINK-4107,1 53287U 22086AX  23282.00269695  .00026022  00000-0  16449-2 0  9995,2 53287  53.2148 186.6584 0001396  82.9406 277.1745 15.08887755 67770,6917.734,95.435,540.565,538.634,0.0
53287.0,STARLINK-4107,PAYLOAD,2023-10-09 11:11:34,15.0885851,0.0001421,53.216,184.5767,100.672,259.4432,6.2212e-05,7.03e-06,0.0,0 STARLINK-4107,1 53287U 22086AX  23282.46637402  .00000703  00000-0  62212-4 0  9999,2 53287  53.2160 184.5767 0001421 100.6720 259.4432 15.08858510 68000,6917.824,95.436,540.672,538.706,0.0
53287.0,STARLINK-4107,PAYLOAD,2023-10-09 17:33:07,15.08822234,0.0001875,53.216,183.3867,107.1853,252.9344,3.3775e-05,2.49e-06,0.0,0 STARLINK-4107,1 53287U 22086AX  23282.73134241  .00000249  00000-0  33775-4 0  9999,2 53287  53.2160 183.3867 0001875 107.1853 252.9344 15.08822234 67889,6917.935,95.439,541.097,538.503,0.0
53287.0,STARLINK-4107,PAYLOAD,2023-10-09 20:43:54,15.08817038,0.0001545,53.216,182.7923,117.0208,243.0942,0.00064628,0.00010006,0.0,0 STARLINK-4107,1 53287U 22086AX  23282.86382407  .00010006  00000-0  64628-3 0  9994,2 53287  53.2160 182.7923 0001545 117.0208 243.0942 15.08817038 68065,6917.951,95.439,540.884,538.747,0.0
53287.0,STARLINK-4107,PAYLOAD,2023-10-10 03:05:27,15.08824013,0.0001481,53.2163,181.6031,113.1832,246.9316,0.0021894,0.00034713,0.0,0 STARLINK-4107,1 53287U 22086AX  23283.12878887  .00034713  00000-0  21894-2 0  9994,2 53287  53.2163 181.6031 0001481 113.1832 246.9316 15.08824013 67949,6917.929,95.439,540.819,538.77,0.0
53287.0,STARLINK-4107,PAYLOAD,2023-10-10 17:23:56,15.08832182,0.0001488,53.2163,178.9255,108.9105,251.2049,0.0017669,0.00027938,0.0,0 STARLINK-4107,1 53287U 22086AX  23283.72496166  .00027938  00000-0  17669-2 0  9992,2 53287  53.2163 178.9255 0001488 108.9105 251.2049 15.08832182 68037,6917.904,95.438,540.799,538.74,0.0
53287.0,STARLINK-4107,PAYLOAD,2023-10-10 22:10:06,15.08832145,0.0001478,53.2164,178.0327,118.5805,241.5336,0.0014799,0.00023338,0.0,0 STARLINK-4107,1 53287U 22086AX  23283.92368324  .00023338  00000-0  14799-2 0  9999,2 53287  53.2164 178.0327 0001478 118.5805 241.5336 15.08832145 68223,6917.904,95.438,540.792,538.747,0.0
53287.0,STARLINK-4107,PAYLOAD,2023-10-11 02:56:15,15.08841278,0.0001423,53.2168,177.1414,113.6323,246.4819,0.0016916,0.00026737,0.0,0 STARLINK-4107,1 53287U 22086AX  23284.12240442  .00026737  00000-0  16916-2 0  9991,2 53287  53.2168 177.1414 0001423 113.6323 246.4819 15.08841278 68097,6917.876,95.437,540.726,538.757,0.0
